$$SOE
2461288.500000000, A.D. 2026-Sep-05 00:00:00.0000, 4.390373722083029E+08, -2.136983395797122E+08, 5.087478592685514E+07,
2461295.500000000, A.D. 2026-Sep-12 00:00:00.0000, 4.419678454385066E+08, -2.034607084433810E+08, 4.931000647228286E+07,
2461302.500000000, A.D. 2026-Sep-19 00:00:00.0000, 4.447149010331241E+08, -1.931386677761200E+08, 4.772476057929304E+07,
2461309.500000000, A.D. 2026-Sep-26 00:00:00.0000, 4.472752805505358E+08, -1.827355838661045E+08, 4.611947913790125E+07,
2461316.500000000, A.D. 2026-Oct-03 00:00:00.0000, 4.496457800774169E+08, -1.722549564343642E+08, 4.449461670338185E+07,
2461323.500000000, A.D. 2026-Oct-10 00:00:00.0000, 4.518232564894875E+08, -1.617004189343458E+08, 4.285065180507217E+07,
2461330.500000000, A.D. 2026-Oct-17 00:00:00.0000, 4.538046338536196E+08, -1.510757386250221E+08, 4.118808720887683E+07,
2461337.500000000, A.D. 2026-Oct-24 00:00:00.0000, 4.555869099837475E+08, -1.403848164210103E+08, 3.950745012627820E+07,
2461344.500000000, A.D. 2026-Oct-31 00:00:00.0000, 4.571671632351798E+08, -1.296316865684457E+08, 3.780929235217570E+07,
2461351.500000000, A.D. 2026-Nov-07 00:00:00.0000, 4.585425598590513E+08, -1.188205160551001E+08, 3.609419030307499E+07,
2461358.500000000, A.D. 2026-Nov-14 00:00:00.0000, 4.597103620980677E+08, -1.079556028495914E+08, 3.436274500625470E+07,
2461365.500000000, A.D. 2026-Nov-21 00:00:00.0000, 4.606679351915625E+08, -9.704137227090728E+07, 3.261558225878500E+07,
2461372.500000000, A.D. 2026-Nov-28 00:00:00.0000, 4.614127522696379E+08, -8.608237448191689E+07, 3.085335279914337E+07,
2461379.500000000, A.D. 2026-Dec-05 00:00:00.0000, 4.619424007293786E+08, -7.508328374953844E+07, 2.907673210240807E+07,
2461386.500000000, A.D. 2026-Dec-12 00:00:00.0000, 4.622545902296015E+08, -6.404889634687244E+07, 2.728642003499747E+07,
2461393.500000000, A.D. 2026-Dec-19 00:00:00.0000, 4.623471603880296E+08, -5.298412707908957E+07, 2.548314053996269E+07,
2461400.500000000, A.D. 2026-Dec-26 00:00:00.0000, 4.622180880081645E+08, -4.189400529180228E+07, 2.366764129260675E+07,
2461407.500000000, A.D. 2027-Jan-02 00:00:00.0000, 4.618654940793829E+08, -3.078367054584985E+07, 2.184069328339061E+07,
2461414.500000000, A.D. 2027-Jan-09 00:00:00.0000, 4.612876506330726E+08, -1.965836793373679E+07, 2.000309031719096E+07,
2461421.500000000, A.D. 2027-Jan-16 00:00:00.0000, 4.604829874544176E+08, -8.523443026912935E+06, 1.815564842487264E+07,
2461428.500000000, A.D. 2027-Jan-23 00:00:00.0000, 4.594500986588563E+08, 2.615663505597678E+06, 1.629920517856769E+07,
2461435.500000000, A.D. 2027-Jan-30 00:00:00.0000, 4.581877492828172E+08, 1.375342155530101E+07, 1.443461888870954E+07,
2461442.500000000, A.D. 2027-Feb-06 00:00:00.0000, 4.566948822736879E+08, 2.488421784184430E+07, 1.256276767109688E+07,
2461449.500000000, A.D. 2027-Feb-13 00:00:00.0000, 4.549706253782303E+08, 3.600236400070154E+07, 1.068454852591491E+07,
2461456.500000000, A.D. 2027-Feb-20 00:00:00.0000, 4.530142955282398E+08, 4.710210568815858E+07, 8.800876581855068E+06,
2461463.500000000, A.D. 2027-Feb-27 00:00:00.0000, 4.508254020837127E+08, 5.817762947251708E+07, 6.912684115963593E+06,
2461470.500000000, A.D. 2027-Mar-06 00:00:00.0000, 4.484036519136654E+08, 6.922306941305713E+07, 5.020919230944362E+06,
2461477.500000000, A.D. 2027-Mar-13 00:00:00.0000, 4.457489546774856E+08, 8.023251535341907E+07, 3.126544506398950E+06,
2461484.500000000, A.D. 2027-Mar-20 00:00:00.0000, 4.428614271435584E+08, 9.120002206873533E+07, 1.230535662395786E+06,
2461491.500000000, A.D. 2027-Mar-27 00:00:00.0000, 4.397413967154850E+08, 1.021196186879487E+08, -6.661198244040683E+05,
2461498.500000000, A.D. 2027-Apr-03 00:00:00.0000, 4.363894043391253E+08, 1.129853183107754E+08, -2.562424170372546E+06,
2461505.500000000, A.D. 2027-Apr-10 00:00:00.0000, 4.328062068244798E+08, 1.237911278067088E+08, -4.457370799221545E+06,
2461512.500000000, A.D. 2027-Apr-17 00:00:00.0000, 4.289927785802117E+08, 1.345310577434899E+08, -6.349945918802872E+06,
2461519.500000000, A.D. 2027-Apr-24 00:00:00.0000, 4.249503128192226E+08, 1.451991323422111E+08, -8.239130166838713E+06,
2461526.500000000, A.D. 2027-May-01 00:00:00.0000, 4.206802225178466E+08, 1.557893994436194E+08, -1.012390034447033E+07,
2461533.500000000, A.D. 2027-May-08 00:00:00.0000, 4.161841414216275E+08, 1.662959411880710E+08, -1.200323119797900E+07,
2461540.500000000, A.D. 2027-May-15 00:00:00.0000, 4.114639235888296E+08, 1.767128863161826E+08, -1.387609702617359E+07,
2461547.500000000, A.D. 2027-May-22 00:00:00.0000, 4.065216399031779E+08, 1.870344214528268E+08, -1.574147317404090E+07,
2461554.500000000, A.D. 2027-May-29 00:00:00.0000, 4.013595749129053E+08, 1.972547998567514E+08, -1.759833783286577E+07,
2461561.500000000, A.D. 2027-Jun-05 00:00:00.0000, 3.959802248818656E+08, 2.073683507159650E+08, -1.944567396420809E+07,
2461568.500000000, A.D. 2027-Jun-12 00:00:00.0000, 3.903862950489076E+08, 2.173694893710009E+08, -2.128247111993302E+07,
2461575.500000000, A.D. 2027-Jun-19 00:00:00.0000, 3.845806957734675E+08, 2.272527274834419E+08, -2.310772719568130E+07,
2461582.500000000, A.D. 2027-Jun-26 00:00:00.0000, 3.785665378611737E+08, 2.370126828429229E+08, -2.492045015604945E+07,
2461589.500000000, A.D. 2027-Jul-03 00:00:00.0000, 3.723471272217154E+08, 2.466440887775056E+08, -2.671965973436980E+07,
2461596.500000000, A.D. 2027-Jul-10 00:00:00.0000, 3.659259589212736E+08, 2.561418031342433E+08, -2.850438910154687E+07,
2461603.500000000, A.D. 2027-Jul-17 00:00:00.0000, 3.593067106954648E+08, 2.655008167505605E+08, -3.027368650263265E+07,
2461610.500000000, A.D. 2027-Jul-24 00:00:00.0000, 3.524932361120238E+08, 2.747162613151081E+08, -3.202661687318592E+07,
2461617.500000000, A.D. 2027-Jul-31 00:00:00.0000, 3.454895578303542E+08, 2.837834168174933E+08, -3.376226344692202E+07,
2461624.500000000, A.D. 2027-Aug-07 00:00:00.0000, 3.382998607944286E+08, 2.926977197043719E+08, -3.547972923547231E+07,
2461631.500000000, A.D. 2027-Aug-14 00:00:00.0000, 3.309284830950104E+08, 3.014547714585831E+08, -3.717813818324341E+07,
2461638.500000000, A.D. 2027-Aug-21 00:00:00.0000, 3.233799051611875E+08, 3.100503442147388E+08, -3.885663632322323E+07,
2461645.500000000, A.D. 2027-Aug-28 00:00:00.0000, 3.156587407587227E+08, 3.184803845942565E+08, -4.051439314557660E+07,
2461652.500000000, A.D. 2027-Sep-04 00:00:00.0000, 3.077697286588867E+08, 3.267410182435381E+08, -4.215060286192998E+07,
2461659.500000000, A.D. 2027-Sep-11 00:00:00.0000, 2.997177236274269E+08, 3.348285544008476E+08, -4.376448548762649E+07,
2461666.500000000, A.D. 2027-Sep-18 00:00:00.0000, 2.915076869132823E+08, 3.427394898335201E+08, -4.535528780436264E+07,
2461673.500000000, A.D. 2027-Sep-25 00:00:00.0000, 2.831446765127509E+08, 3.504705120638438E+08, -4.692228422836761E+07,
2461680.500000000, A.D. 2027-Oct-02 00:00:00.0000, 2.746338373306832E+08, 3.580185019111590E+08, -4.846477758726935E+07,
2461687.500000000, A.D. 2027-Oct-09 00:00:00.0000, 2.659803913069688E+08, 3.653805353496150E+08, -4.998209980724265E+07,
2461694.500000000, A.D. 2027-Oct-16 00:00:00.0000, 2.571896276162333E+08, 3.725538846345063E+08, -5.147361252052470E+07,
2461701.500000000, A.D. 2027-Oct-23 00:00:00.0000, 2.482668932441508E+08, 3.795360187030874E+08, -5.293870761807653E+07,
2461708.500000000, A.D. 2027-Oct-30 00:00:00.0000, 2.392175843575347E+08, 3.863246034750186E+08, -5.437680773308791E+07,
2461715.500000000, A.D. 2027-Nov-06 00:00:00.0000, 2.300471373450186E+08, 3.929175031965057E+08, -5.578736645792341E+07,
2461722.500000000, A.D. 2027-Nov-13 00:00:00.0000, 2.207610175781983E+08, 3.993127807698617E+08, -5.716986828330058E+07,
2461729.500000000, A.D. 2027-Nov-20 00:00:00.0000, 2.113647088288347E+08, 4.055086949070287E+08, -5.852382870679487E+07,
2461736.500000000, A.D. 2027-Nov-27 00:00:00.0000, 2.018637049934775E+08, 4.115036970970849E+08, -5.984879442007209E+07,
2461743.500000000, A.D. 2027-Dec-04 00:00:00.0000, 1.922635021308939E+08, 4.172964293263842E+08, -6.114434331748104E+07,
2461750.500000000, A.D. 2027-Dec-11 00:00:00.0000, 1.825695902866253E+08, 4.228857216147552E+08, -6.241008435743758E+07,
2461757.500000000, A.D. 2027-Dec-18 00:00:00.0000, 1.727874454020713E+08, 4.282705890584633E+08, -6.364565733328450E+07,
2461764.500000000, A.D. 2027-Dec-25 00:00:00.0000, 1.629225214800054E+08, 4.334502284089249E+08, -6.485073257196820E+07,
2461771.500000000, A.D. 2028-Jan-01 00:00:00.0000, 1.529802430652298E+08, 4.384240142336528E+08, -6.602501056768127E+07,
$$EOE